0 OPS 4682 DEB
1 01389U 65027D   13282.08070840  .00000266  00000-0  74190-3 0  7811
2 01389 089.7367 322.7237 0027338 063.1357 325.4633 13.09685158303522
0 OPS 4682 DEB
1 01389U 65027D   13283.70444492  .00000675  00000-0  19217-2 0  7822
2 01389 089.7364 322.6835 0027242 058.9115 061.0297 13.09682861303730
0 OPS 4682 DEB
1 01389U 65027D   13286.13659807  .00001263  00000-0  36196-2 0  7841
2 01389 089.7362 322.6234 0027031 052.3707 008.3026 13.09681578304056
0 OPS 4682 DEB
1 01389U 65027D   13287.53472575  .00001468  00000-0  42139-2 0  7853
2 01389 089.7364 322.5887 0026951 048.6569 120.2333 13.09683230304237
0 OPS 4682 DEB
1 01389U 65027D   13288.59335426  .00001561  00000-0  44805-2 0  7860
2 01389 089.7365 322.5624 0026873 045.7485 071.5827 13.09685867304374
0 OPS 4682 DEB
1 01389U 65027D   13289.59715543  .00001448  00000-0  41552-2 0  7874
2 01389 089.7366 322.5375 0026810 043.1126 124.3084 13.09689543304505
0 OPS 4682 DEB
1 01389U 65027D   13290.73177882  .00001237  00000-0  35449-2 0  7885
2 01389 089.7369 322.5094 0026723 040.0678 073.9106 13.09693743304654
0 OPS 4682 DEB
1 01389U 65027D   13291.80087795  .00000961  00000-0  27474-2 0  7890
2 01389 089.7371 322.4830 0026668 037.2455 074.5386 13.09697757304794
0 OPS 4682 DEB
1 01389U 65027D   13293.16828015  .00000603  00000-0  17138-2 0  7900
2 01389 089.7372 322.4490 0026555 033.5104 041.7608 13.09702946304972
0 OPS 4682 DEB
1 01389U 65027D   13294.23662448  .00000304  00000-0  85016-3 0  7915
2 01389 089.7372 322.4226 0026473 030.5919 038.9592 13.09706736305117
0 OPS 4682 DEB
1 01389U 65027D   13295.47119729  .00000031  00000-0  63993-4 0  7920
2 01389 089.7370 322.3922 0026387 027.2220 099.9330 13.09709851305274
